NORAD_CAT_ID,OBJECT_NAME,OBJECT_TYPE,EPOCH,MEAN_MOTION,ECCENTRICITY,INCLINATION,RA_OF_ASC_NODE,ARG_OF_PERICENTER,MEAN_ANOMALY,BSTAR,MEAN_MOTION_DOT,MEAN_MOTION_DDOT,TLE_LINE0,TLE_LINE1,TLE_LINE2,SEMIMAJOR_AXIS,PERIOD,APOGEE,PERIGEE,DECAYED
49158.0,STARLINK-3083,PAYLOAD,2023-09-22 12:50:13,15.00992335,0.0001965,70.0007,20.7331,219.3771,140.7247,0.0022628,0.0002896,0.0,0 STARLINK-3083,1 49158U 21082AE  23265.53487589  .00028960  00000-0  22628-2 0  9994,2 49158  70.0007  20.7331 0001965 219.3771 140.7247 15.00992335112905,6941.972,95.937,565.201,562.473,0.0
49158.0,STARLINK-3083,PAYLOAD,2023-09-22 17:38:06,15.01006252,0.0001974,70.0005,20.2263,220.1321,139.9694,0.0024098,0.00030867,0.0,0 STARLINK-3083,1 49158U 21082AE  23265.73479948  .00030867  00000-0  24098-2 0  9998,2 49158  70.0005  20.2263 0001974 220.1321 139.9694 15.01006252112937,6941.929,95.936,565.164,562.424,0.0
49158.0,STARLINK-3083,PAYLOAD,2023-09-23 12:49:38,15.01055292,0.0001869,70.0003,18.2013,222.4707,137.6309,0.0023289,0.00029862,0.0,0 STARLINK-3083,1 49158U 21082AE  23266.53447733  .00029862  00000-0  23289-2 0  9998,2 49158  70.0003  18.2013 0001869 222.4707 137.6309 15.01055292113051,6941.778,95.933,564.94,562.345,0.0
49158.0,STARLINK-3083,PAYLOAD,2023-09-24 11:13:03,15.01116603,0.0001763,70.0003,15.8392,225.1222,134.9795,0.0022722,0.00029176,0.0,0 STARLINK-3083,1 49158U 21082AE  23267.46739998  .00029176  00000-0  22722-2 0  9997,2 49158  70.0003  15.8392 0001763 225.1222 134.9795 15.01116603113197,6941.589,95.929,564.678,562.23,0.0
49158.0,STARLINK-3083,PAYLOAD,2023-09-24 14:24:58,15.01124622,0.0001741,70.0003,15.5017,226.1092,133.9925,0.0023231,0.00029841,0.0,0 STARLINK-3083,1 49158U 21082AE  23267.60067188  .00029841  00000-0  23231-2 0  9993,2 49158  70.0003  15.5017 0001741 226.1092 133.9925 15.01124622113217,6941.564,95.928,564.638,562.221,0.0
49158.0,STARLINK-3083,PAYLOAD,2023-09-24 17:36:52,15.01134437,0.0001701,70.0003,15.1642,226.6626,133.4392,0.0024079,0.00030947,0.0,0 STARLINK-3083,1 49158U 21082AE  23267.73394271  .00030947  00000-0  24079-2 0  9993,2 49158  70.0003  15.1642 0001701 226.6626 133.4392 15.01134437113231,6941.534,95.927,564.58,562.218,0.0
49158.0,STARLINK-3083,PAYLOAD,2023-09-25 09:36:24,15.01208817,0.0001635,70.0002,13.4766,230.671,129.4306,0.0046093,0.00059687,0.0,0 STARLINK-3083,1 49158U 21082AE  23268.40028082  .00059687  00000-0  46093-2 0  9994,2 49158  70.0002  13.4766 0001635 230.6710 129.4306 15.01208817113338,6941.305,95.923,564.305,562.035,0.0
49158.0,STARLINK-3083,PAYLOAD,2023-09-25 12:48:18,15.01204447,0.0001558,70.0004,13.1391,230.7118,129.3904,0.0032712,0.00042222,0.0,0 STARLINK-3083,1 49158U 21082AE  23268.53354666  .00042222  00000-0  32712-2 0  9998,2 49158  70.0004  13.1391 0001558 230.7118 129.3904 15.01204447113358,6941.318,95.923,564.265,562.102,0.0
49158.0,STARLINK-3083,PAYLOAD,2023-09-25 14:24:15,15.01209788,0.0001527,70.0003,12.9702,232.81,127.2921,0.0032578,0.00042053,0.0,0 STARLINK-3083,1 49158U 21082AE  23268.60017884  .00042053  00000-0  32578-2 0  9996,2 49158  70.0003  12.9702 0001527 232.8100 127.2921 15.01209788113360,6941.302,95.923,564.227,562.107,0.0
49158.0,STARLINK-3083,PAYLOAD,2023-09-26 14:23:27,15.01299146,0.0001389,70.0005,10.4385,238.0096,122.0929,0.0033545,0.00043414,0.0,0 STARLINK-3083,1 49158U 21082AE  23269.59962685  .00043414  00000-0  33545-2 0  9990,2 49158  70.0005  10.4385 0001389 238.0096 122.0929 15.01299146113515,6941.026,95.917,563.855,561.927,0.0
49158.0,STARLINK-3083,PAYLOAD,2023-09-26 17:35:21,15.01311519,0.0001387,70.0004,10.1006,234.4331,125.67,0.0034079,0.00044126,0.0,0 STARLINK-3083,1 49158U 21082AE  23269.73288215  .00044126  00000-0  34079-2 0  9990,2 49158  70.0004  10.1006 0001387 234.4331 125.6700 15.01311519113538,6940.988,95.916,563.816,561.89,0.0
49158.0,STARLINK-3083,PAYLOAD,2023-09-27 12:46:38,15.01371415,0.0001319,70.0007,8.0751,240.3059,119.797,0.0026455,0.00034238,0.0,0 STARLINK-3083,1 49158U 21082AE  23270.53239376  .00034238  00000-0  26455-2 0  9996,2 49158  70.0007   8.0751 0001319 240.3059 119.7970 15.01371415113659,6940.803,95.912,563.584,561.753,0.0
49158.0,STARLINK-3083,PAYLOAD,2023-09-27 15:58:31,15.01379933,0.0001322,70.0008,7.7376,240.861,119.2418,0.0025929,0.0003356,0.0,0 STARLINK-3083,1 49158U 21082AE  23270.66564306  .00033560  00000-0  25929-2 0  9996,2 49158  70.0008   7.7376 0001322 240.8610 119.2418 15.01379933113678,6940.777,95.912,563.56,561.725,0.0
49158.0,STARLINK-3083,PAYLOAD,2023-09-28 14:21:38,15.01439961,0.000131,70.0012,5.3747,247.0285,113.0738,0.0022909,0.0002967,0.0,0 STARLINK-3083,1 49158U 21082AE  23271.59836419  .00029670  00000-0  22909-2 0  9998,2 49158  70.0012   5.3747 0001310 247.0285 113.0738 15.01439961113814,6940.592,95.908,563.366,561.548,0.0
49158.0,STARLINK-3083,PAYLOAD,2023-09-28 15:57:34,15.01443844,0.0001306,70.0012,5.2059,247.4601,112.6421,0.0022948,0.00029724,0.0,0 STARLINK-3083,1 49158U 21082AE  23271.66498592  .00029724  00000-0  22948-2 0  9995,2 49158  70.0012   5.2059 0001306 247.4601 112.6421 15.01443844113820,6940.58,95.908,563.352,561.539,0.0
49158.0,STARLINK-3083,PAYLOAD,2023-09-29 09:32:50,15.0149128,0.0001311,70.0012,3.3491,252.4181,107.6836,0.0023053,0.00029899,0.0,0 STARLINK-3083,1 49158U 21082AE  23272.39781056  .00029899  00000-0  23053-2 0  9997,2 49158  70.0012   3.3491 0001311 252.4181 107.6836 15.01491280113937,6940.434,95.905,563.209,561.389,0.0
49158.0,STARLINK-3083,PAYLOAD,2023-09-29 14:20:38,15.01509013,0.0001319,70.0011,2.8427,254.6258,105.4757,0.0028059,0.00036463,0.0,0 STARLINK-3083,1 49158U 21082AE  23272.59766762  .00036463  00000-0  28059-2 0  9992,2 49158  70.0011   2.8427 0001319 254.6258 105.4757 15.01509013113961,6940.379,95.904,563.16,561.329,0.0
49158.0,STARLINK-3083,PAYLOAD,2023-09-29 23:56:13,15.01537165,0.0001335,70.001,1.8298,258.5987,101.5023,0.0026712,0.00034725,0.0,0 STARLINK-3083,1 49158U 21082AE  23272.99737563  .00034725  00000-0  26712-2 0  9996,2 49158  70.0010   1.8298 0001335 258.5987 101.5023 15.01537165114025,6940.293,95.902,563.084,561.231,0.0
49158.0,STARLINK-3083,PAYLOAD,2023-10-01 12:42:30,15.0165753,0.0001339,70.0005,357.9472,272.3398,87.761,0.0028653,0.00037388,0.0,0 STARLINK-3083,1 49158U 21082AE  23274.52951401  .00037388  00000-0  28653-2 0  9990,2 49158  70.0005 357.9472 0001339 272.3398  87.7610 15.01657530114253,6939.922,95.894,562.716,560.858,0.0
49158.0,STARLINK-3083,PAYLOAD,2023-10-01 15:54:20,15.01667678,0.000133,70.0004,357.6096,273.4328,86.6681,0.0028105,0.00036677,0.0,0 STARLINK-3083,1 49158U 21082AE  23274.66273769  .00036677  00000-0  28105-2 0  9991,2 49158  70.0004 357.6096 0001330 273.4328  86.6681 15.01667678114279,6939.891,95.893,562.679,560.833,0.0
49158.0,STARLINK-3083,PAYLOAD,2023-10-02 15:53:07,15.01741393,0.000132,70.0,355.0768,283.7272,76.3742,0.0027282,0.00035664,0.0,0 STARLINK-3083,1 49158U 21082AE  23275.66188675  .00035664  00000-0  27282-2 0  9993,2 49158  70.0000 355.0768 0001320 283.7272  76.3742 15.01741393114422,6939.663,95.889,562.444,560.612,0.0
49158.0,STARLINK-3083,PAYLOAD,2023-10-03 14:15:54,15.01805138,0.0001332,69.9996,352.7126,292.0005,68.1014,0.0025243,0.00033035,0.0,0 STARLINK-3083,1 49158U 21082AE  23276.59438317  .00033035  00000-0  25243-2 0  9992,2 49158  69.9996 352.7126 0001332 292.0005  68.1014 15.01805138114569,6939.467,95.885,562.256,560.408,0.0
49158.0,STARLINK-3083,PAYLOAD,2023-10-04 04:39:06,15.01852621,0.0001331,69.9995,351.1927,295.1302,64.972,0.0028831,0.00037817,0.0,0 STARLINK-3083,1 49158U 21082AE  23277.19382351  .00037817  00000-0  28831-2 0  9993,2 49158  69.9995 351.1927 0001331 295.1302  64.9720 15.01852621114650,6939.321,95.882,562.109,560.262,0.0
49158.0,STARLINK-3083,PAYLOAD,2023-10-04 14:14:33,15.01881114,0.0001379,69.9995,350.1793,295.863,64.2389,0.0029016,0.0003809,0.0,0 STARLINK-3083,1 49158U 21082AE  23277.59344064  .00038090  00000-0  29016-2 0  9996,2 49158  69.9995 350.1793 0001379 295.8630  64.2389 15.01881114114713,6939.233,95.88,562.055,560.141,0.0
49158.0,STARLINK-3083,PAYLOAD,2023-10-04 22:14:05,15.01906023,0.0001413,69.9994,349.3348,297.2064,62.8953,0.0028233,0.00037079,0.0,0 STARLINK-3083,1 49158U 21082AE  23277.92644851  .00037079  00000-0  28233-2 0  9996,2 49158  69.9994 349.3348 0001413 297.2064  62.8953 15.01906023114767,6939.156,95.878,562.002,560.041,0.0
49158.0,STARLINK-3083,PAYLOAD,2023-10-05 11:01:19,15.01949424,0.000149,69.9993,347.9833,298.5091,61.592,0.0030181,0.00039704,0.0,0 STARLINK-3083,1 49158U 21082AE  23278.45924878  .00039704  00000-0  30181-2 0  9997,2 49158  69.9993 347.9833 0001490 298.5091  61.5920 15.01949424114849,6939.023,95.875,561.922,559.854,0.0
49158.0,STARLINK-3083,PAYLOAD,2023-10-05 12:37:13,15.01954164,0.0001492,69.9993,347.8144,298.6891,61.412,0.0030065,0.00039555,0.0,0 STARLINK-3083,1 49158U 21082AE  23278.52584798  .00039555  00000-0  30065-2 0  9993,2 49158  69.9993 347.8144 0001492 298.6891  61.4120 15.01954164114853,6939.008,95.875,561.908,559.838,0.0
49158.0,STARLINK-3083,PAYLOAD,2023-10-05 14:13:07,15.01958821,0.0001505,69.9992,347.6455,298.7721,61.3289,0.0029936,0.00039389,0.0,0 STARLINK-3083,1 49158U 21082AE  23278.59244694  .00039389  00000-0  29936-2 0  9998,2 49158  69.9992 347.6455 0001505 298.7721  61.3289 15.01958821114863,6938.994,95.875,561.903,559.814,0.0
49158.0,STARLINK-3083,PAYLOAD,2023-10-06 10:59:49,15.02016587,0.0001594,69.9995,345.45,302.0338,58.0668,0.0024722,0.0003253,0.0,0 STARLINK-3083,1 49158U 21082AE  23279.45821308  .00032530  00000-0  24722-2 0  9996,2 49158  69.9995 345.4500 0001594 302.0338  58.0668 15.02016587114997,6938.816,95.871,561.787,559.575,0.0
49158.0,STARLINK-3083,PAYLOAD,2023-10-06 12:35:43,15.02022807,0.0001604,69.9994,345.2811,302.1051,57.9954,0.0026417,0.00034784,0.0,0 STARLINK-3083,1 49158U 21082AE  23279.52480907  .00034784  00000-0  26417-2 0  9996,2 49158  69.9994 345.2811 0001604 302.1051  57.9954 15.02022807115005,6938.797,95.871,561.775,559.549,0.0
